NORAD_CAT_ID,OBJECT_NAME,OBJECT_TYPE,EPOCH,MEAN_MOTION,ECCENTRICITY,INCLINATION,RA_OF_ASC_NODE,ARG_OF_PERICENTER,MEAN_ANOMALY,BSTAR,MEAN_MOTION_DOT,MEAN_MOTION_DDOT,TLE_LINE0,TLE_LINE1,TLE_LINE2,SEMIMAJOR_AXIS,PERIOD,APOGEE,PERIGEE,DECAYED
52708.0,STARLINK-3962,PAYLOAD,2024-02-08 22:19:54,15.08830418,0.0001386,53.2184,304.7996,93.0446,267.0704,0.00012742,1.74e-05,0.0,0 STARLINK-3962,1 52708U 22053BE  24039.93048709  .00001740  00000-0  12742-3 0  9993,2 52708  53.2184 304.7996 0001386  93.0446 267.0704 15.08830418 96828,6917.91,95.438,540.733,538.816,0.0
52708.0,STARLINK-3962,PAYLOAD,2024-02-09 03:06:03,15.08834429,0.0001552,53.2191,303.9056,75.9922,284.1242,0.00018714,2.691e-05,0.0,0 STARLINK-3962,1 52708U 22053BE  24040.12920460  .00002691  00000-0  18714-3 0  9990,2 52708  53.2191 303.9056 0001552  75.9922 284.1242 15.08834429 96224,6917.897,95.438,540.836,538.689,0.0
52708.0,STARLINK-3962,PAYLOAD,2024-02-09 17:24:32,15.08828814,0.0001525,53.2178,301.2367,98.3713,261.7452,5.2938e-05,5.54e-06,0.0,0 STARLINK-3962,1 52708U 22053BE  24040.72537382  .00000554  00000-0  52938-4 0  9996,2 52708  53.2178 301.2367 0001525  98.3713 261.7452 15.08828814 96317,6917.915,95.438,540.835,538.725,0.0
52708.0,STARLINK-3962,PAYLOAD,2024-02-10 02:56:50,15.08845318,0.0001289,53.2169,299.4521,100.2671,259.8467,8.2153e-05,1.02e-05,0.0,0 STARLINK-3962,1 52708U 22053BE  24041.12280356  .00001020  00000-0  82153-4 0  9998,2 52708  53.2169 299.4521 0001289 100.2671 259.8467 15.08845318 96378,6917.864,95.437,540.621,538.837,0.0
52708.0,STARLINK-3962,PAYLOAD,2024-02-10 12:29:09,15.08835145,0.0001374,53.2167,297.6689,90.2403,269.8747,2.8171e-05,1.6e-06,0.0,0 STARLINK-3962,1 52708U 22053BE  24041.52025296  .00000160  00000-0  28171-4 0  9996,2 52708  53.2167 297.6689 0001374  90.2403 269.8747 15.08835145 97063,6917.895,95.438,540.711,538.81,0.0
52708.0,STARLINK-3962,PAYLOAD,2024-02-10 22:01:27,15.08853937,0.0001197,53.2166,295.8852,97.6401,262.4727,2.0124e-05,3.3e-07,0.0,0 STARLINK-3962,1 52708U 22053BE  24041.91768199  .00000033  00000-0  20124-4 0  9994,2 52708  53.2166 295.8852 0001197  97.6401 262.4727 15.08853937 97129,6917.838,95.437,540.531,538.875,0.0
52708.0,STARLINK-3962,PAYLOAD,2024-02-11 02:47:34,15.08882497,0.0001285,53.2167,294.9923,82.9845,277.1293,0.00027206,4.05e-05,0.0,0 STARLINK-3962,1 52708U 22053BE  24042.11637498  .00004050  00000-0  27206-3 0  9994,2 52708  53.2167 294.9923 0001285  82.9845 277.1293 15.08882497 96523,6917.75,95.435,540.504,538.727,0.0
52708.0,STARLINK-3962,PAYLOAD,2024-02-11 13:55:20,15.08824704,0.0001331,53.2166,292.9111,101.433,258.6811,2.0699e-05,4.1e-07,0.0,0 STARLINK-3962,1 52708U 22053BE  24042.58009800  .00000041  00000-0  20699-4 0  9991,2 52708  53.2166 292.9111 0001331 101.4330 258.6811 15.08824704 97222,6917.927,95.439,540.713,538.871,0.0
52708.0,STARLINK-3962,PAYLOAD,2024-02-11 20:16:51,15.08845878,0.0001348,53.2156,291.722,106.8567,253.2573,0.00011108,1.481e-05,0.0,0 STARLINK-3962,1 52708U 22053BE  24042.84504544  .00001481  00000-0  11108-3 0  9998,2 52708  53.2156 291.7220 0001348 106.8567 253.2573 15.08845878 96633,6917.862,95.437,540.66,538.795,0.0
52708.0,STARLINK-3962,PAYLOAD,2024-02-11 21:52:15,15.08847047,0.0001333,53.2156,291.4246,105.2552,254.8587,0.00013585,1.875e-05,0.0,0 STARLINK-3962,1 52708U 22053BE  24042.91128485  .00001875  00000-0  13585-3 0  9990,2 52708  53.2156 291.4246 0001333 105.2552 254.8587 15.08847047 97272,6917.859,95.437,540.646,538.802,0.0
52708.0,STARLINK-3962,PAYLOAD,2024-02-12 02:38:23,15.08863844,0.0001404,53.2153,290.5327,109.4404,250.674,0.000652,0.00010111,0.0,0 STARLINK-3962,1 52708U 22053BE  24043.10999963  .00010111  00000-0  65200-3 0  9993,2 52708  53.2153 290.5327 0001404 109.4404 250.6740 15.08863844 96671,6917.808,95.436,540.644,538.701,0.0
52708.0,STARLINK-3962,PAYLOAD,2024-02-12 12:10:43,15.08836216,0.0001469,53.215,288.7488,115.8908,244.2236,0.00037307,5.654e-05,0.0,0 STARLINK-3962,1 52708U 22053BE  24043.50744657  .00005654  00000-0  37307-3 0  9998,2 52708  53.2150 288.7488 0001469 115.8908 244.2236 15.08836216 96735,6917.892,95.438,540.773,538.741,0.0
52708.0,STARLINK-3962,PAYLOAD,2024-02-12 21:43:02,15.08837017,0.0001323,53.2151,286.9645,109.7902,250.3232,0.00038286,5.81e-05,0.0,0 STARLINK-3962,1 52708U 22053BE  24043.90488930  .00005810  00000-0  38286-3 0  9992,2 52708  53.2151 286.9645 0001323 109.7902 250.3232 15.08837017 97427,6917.89,95.438,540.67,538.839,0.0
52708.0,STARLINK-3962,PAYLOAD,2024-02-13 08:50:44,15.08832311,0.0001346,53.2147,284.8825,100.4094,259.7049,0.00089795,0.00014029,0.0,0 STARLINK-3962,1 52708U 22053BE  24044.36857478  .00014029  00000-0  89795-3 0  9993,2 52708  53.2147 284.8825 0001346 100.4094 259.7049 15.08832311 96862,6917.904,95.438,540.7,538.838,0.0
52708.0,STARLINK-3962,PAYLOAD,2024-02-13 15:12:17,15.0884025,0.0001527,53.2145,283.693,94.5379,265.5788,0.0010251,0.00016064,0.0,0 STARLINK-3962,1 52708U 22053BE  24044.63353619  .00016064  00000-0  10251-2 0  9992,2 52708  53.2145 283.6930 0001527  94.5379 265.5788 15.08840250 97535,6917.88,95.438,540.801,538.688,0.0
52708.0,STARLINK-3962,PAYLOAD,2024-02-13 21:33:50,15.0884853,0.0001214,53.2144,282.5039,94.2285,265.8846,0.0015206,0.00024001,0.0,0 STARLINK-3962,1 52708U 22053BE  24044.89849591  .00024001  00000-0  15206-2 0  9994,2 52708  53.2144 282.5039 0001214  94.2285 265.8846 15.08848530 97579,6917.854,95.437,540.559,538.879,0.0
52708.0,STARLINK-3962,PAYLOAD,2024-02-14 11:52:18,15.08842244,0.0001233,53.2142,279.8267,89.4849,270.6284,0.00034274,5.171e-05,0.0,0 STARLINK-3962,1 52708U 22053BE  24045.49465472  .00005171  00000-0  34274-3 0  9997,2 52708  53.2142 279.8267 0001233  89.4849 270.6284 15.08842244 97039,6917.874,95.437,540.592,538.886,0.0
52708.0,STARLINK-3962,PAYLOAD,2024-02-14 15:03:04,15.08840158,0.0001174,53.2143,279.2317,90.2398,269.8728,0.00023454,3.447e-05,0.0,0 STARLINK-3962,1 52708U 22053BE  24045.62713493  .00003447  00000-0  23454-3 0  9993,2 52708  53.2143 279.2317 0001174  90.2398 269.8728 15.08840158 97689,6917.88,95.438,540.557,538.933,0.0
52708.0,STARLINK-3962,PAYLOAD,2024-02-14 21:24:36,15.08853298,0.0001196,53.2142,278.043,84.0433,276.0696,0.0012543,0.00019738,0.0,0 STARLINK-3962,1 52708U 22053BE  24045.89209329  .00019738  00000-0  12543-2 0  9996,2 52708  53.2142 278.0430 0001196  84.0433 276.0696 15.08853298 97724,6917.84,95.437,540.532,538.877,0.0
52708.0,STARLINK-3962,PAYLOAD,2024-02-15 03:46:09,15.08866076,0.0001195,53.2141,276.8533,80.4739,279.6388,0.0016506,0.00026098,0.0,0 STARLINK-3962,1 52708U 22053BE  24046.15704964  .00026098  00000-0  16506-2 0  9991,2 52708  53.2141 276.8533 0001195  80.4739 279.6388 15.08866076 97131,6917.801,95.436,540.492,538.839,0.0
52708.0,STARLINK-3962,PAYLOAD,2024-02-15 14:53:51,15.08838387,0.0001667,53.2142,274.7716,94.0081,266.1101,0.00063941,9.902e-05,0.0,0 STARLINK-3962,1 52708U 22053BE  24046.62073631  .00009902  00000-0  63941-3 0  9994,2 52708  53.2142 274.7716 0001667  94.0081 266.1101 15.08838387 97832,6917.885,95.438,540.904,538.597,0.0
52708.0,STARLINK-3962,PAYLOAD,2024-02-15 19:40:01,15.08838702,0.0001282,53.2143,273.8788,89.0985,271.0154,0.0012915,0.00020325,0.0,0 STARLINK-3962,1 52708U 22053BE  24046.81945810  .00020325  00000-0  12915-2 0  9998,2 52708  53.2143 273.8788 0001282  89.0985 271.0154 15.08838702 97230,6917.884,95.438,540.636,538.862,0.0
52708.0,STARLINK-3962,PAYLOAD,2024-02-15 21:15:24,15.08839501,0.000129,53.2143,273.5815,86.9511,273.1629,0.0013312,0.00020961,0.0,0 STARLINK-3962,1 52708U 22053BE  24046.88569802  .00020961  00000-0  13312-2 0  9996,2 52708  53.2143 273.5815 0001290  86.9511 273.1629 15.08839501 97876,6917.882,95.438,540.639,538.855,0.0
52708.0,STARLINK-3962,PAYLOAD,2024-02-16 08:23:06,15.08839275,0.0001267,53.2144,271.4993,87.1611,272.9526,0.0011032,0.00017313,0.0,0 STARLINK-3962,1 52708U 22053BE  24047.34938103  .00017313  00000-0  11032-2 0  9996,2 52708  53.2144 271.4993 0001267  87.1611 272.9526 15.08839275 97319,6917.883,95.438,540.624,538.871,0.0
52708.0,STARLINK-3962,PAYLOAD,2024-02-16 14:44:39,15.08842913,0.000128,53.2145,270.3098,89.0318,271.0821,0.0010578,0.00016588,0.0,0 STARLINK-3962,1 52708U 22053BE  24047.61434150  .00016588  00000-0  10578-2 0  9996,2 52708  53.2145 270.3098 0001280  89.0318 271.0821 15.08842913 97988,6917.871,95.437,540.622,538.851,0.0
52708.0,STARLINK-3962,PAYLOAD,2024-02-16 21:06:11,15.08846494,0.0001377,53.2145,269.1204,84.5631,275.5519,0.00070351,0.00010928,0.0,0 STARLINK-3962,1 52708U 22053BE  24047.87930052  .00010928  00000-0  70351-3 0  9994,2 52708  53.2145 269.1204 0001377  84.5631 275.5519 15.08846494 98025,6917.861,95.437,540.678,538.773,0.0
52708.0,STARLINK-3962,PAYLOAD,2024-02-17 00:16:57,15.08850049,0.0001377,53.2146,268.5253,85.601,274.5139,0.00073771,0.00011475,0.0,0 STARLINK-3962,1 52708U 22053BE  24048.01177940  .00011475  00000-0  73771-3 0  9997,2 52708  53.2146 268.5253 0001377  85.6010 274.5139 15.08850049 97416,6917.85,95.437,540.667,538.762,0.0
52708.0,STARLINK-3962,PAYLOAD,2024-02-17 08:13:53,15.08847802,0.000139,53.2147,267.0381,85.7279,274.3872,0.00049752,7.641e-05,0.0,0 STARLINK-3962,1 52708U 22053BE  24048.34297904  .00007641  00000-0  49752-3 0  9998,2 52708  53.2147 267.0381 0001390  85.7279 274.3872 15.08847802 97466,6917.857,95.437,540.683,538.76,0.0
52708.0,STARLINK-3962,PAYLOAD,2024-02-17 20:56:58,15.08850127,0.0001386,53.2148,264.6589,90.3303,269.7848,0.00038867,5.905e-05,0.0,0 STARLINK-3962,1 52708U 22053BE  24048.87289707  .00005905  00000-0  38867-3 0  9994,2 52708  53.2148 264.6589 0001386  90.3303 269.7848 15.08850127 98179,6917.849,95.437,540.673,538.756,0.0
52708.0,STARLINK-3962,PAYLOAD,2024-02-18 00:07:44,15.08853046,0.0001399,53.2148,264.0642,89.8064,270.3089,0.00043374,6.624e-05,0.0,0 STARLINK-3962,1 52708U 22053BE  24049.00537575  .00006624  00000-0  43374-3 0  9997,2 52708  53.2148 264.0642 0001399  89.8064 270.3089 15.08853046 98194,6917.841,95.437,540.673,538.738,0.0
